GSAT0101 (GALILEO-PFM)  
1 37846U 11060A   26086.31314158 -.00000097  00000+0  00000+0 0  9999
2 37846  57.0197 343.9840 0004117  13.5470 346.4977  1.70475647 89720
GSAT0102 (GALILEO-FM2)  
1 37847U 11060B   26087.70478072 -.00000099  00000+0  00000+0 0  9992
2 37847  57.0201 343.9462 0005116  21.5560 158.0911  1.70475653 89751
GSAT0103 (GALILEO-FM3)  
1 38857U 12055A   26086.35355997  .00000039  00000+0  00000+0 0  9992
2 38857  55.7542 103.7894 0005825 290.2864  69.7017  1.70473333 83613
GSAT0201 (GALILEO 5)    
1 40128U 14050A   26085.95211835 -.00000004  00000+0  00000+0 0  9993
2 40128  48.9652 276.8011 1661372 176.1891 185.2559  1.85519926 76795
GSAT0202 (GALILEO 6)    
1 40129U 14050B   26085.12998542  .00000003  00000+0  00000+0 0  9998
2 40129  48.9839 275.9195 1662233 176.8927 184.2876  1.85520606 78947
GSAT0203 (GALILEO 7)    
1 40544U 15017A   26086.67777373 -.00000097  00000+0  00000+0 0  9995
2 40544  56.8123 343.8202 0003036 318.8222  41.1887  1.70475469 67818
GSAT0204 (GALILEO 8)    
1 40545U 15017B   26086.34677115 -.00000097  00000+0  00000+0 0  9993
2 40545  56.8192 343.8470 0003314 290.4029  69.5952  1.70475336 30855
GSAT0205 (GALILEO 9)    
1 40889U 15045A   26086.36399919 -.00000011  00000+0  00000+0 0  9996
2 40889  54.9729 223.9518 0004152 269.7313  90.1696  1.67410754 65591
GSAT0206 (GALILEO 10)   
1 40890U 15045B   26086.92205734 -.00000016  00000+0  00000+0 0  9996
2 40890  54.9720 223.8461 0003014  48.8202 311.1530  1.70473776 65656
GSAT0209 (GALILEO 12)   
1 41174U 15079A   26087.09015773  .00000041  00000+0  00000+0 0  9997
2 41174  55.7756 103.4845 0005363 324.7749  35.2418  1.70474268 63395
GSAT0208 (GALILEO 11)   
1 41175U 15079B   26087.31039940  .00000042  00000+0  00000+0 0  9996
2 41175  55.7736 103.4753 0004862 326.1206  33.9010  1.70474153 63812
GSAT0211 (GALILEO 14)   
1 41549U 16030A   26086.84781407 -.00000015  00000+0  00000+0 0  9999
2 41549  55.1222 223.9297 0003027  18.1834 341.7749  1.70473902 61288
GSAT0210 (GALILEO 13)   
1 41550U 16030B   26086.51850330 -.00000012  00000+0  00000+0 0  9994
2 41550  55.1217 223.9368 0001813 210.8159 149.1228  1.70473922 61278
GSAT0207 (GALILEO 15)   
1 41859U 16069A   26086.79683287  .00000039  00000+0  00000+0 0  9991
2 41859  55.4460 103.3365 0005689 312.3228  47.6802  1.70474198 58015
GSAT0212 (GALILEO 16)   
1 41860U 16069B   26087.82352524  .00000042  00000+0  00000+0 0  9999
2 41860  55.4444 103.3032 0004278 336.2015  23.8319  1.70474393 58287
GSAT0213 (GALILEO 17)   
1 41861U 16069C   26085.84459114  .00000036  00000+0  00000+0 0  9996
2 41861  55.4449 103.3658 0005734 297.2228  62.7676  1.70474648 58110
GSAT0214 (GALILEO 18)   
1 41862U 16069D   26087.16383991  .00000040  00000+0  00000+0 0  9998
2 41862  55.4445 103.3220 0004756 301.5492  58.4564  1.70474482 58267
